#aV2009  3 19  0  0   .00000000      96 DD+AD WGS84 FIT  NGA
## 1523 345600.00000000   900.00000000 54909  .0000000000000
+   31     2  3  4  5  6  7  8  9 10 11 12 13 14 15 16 17 18
+         19 20 21 22 23 24 25 26 27 28 29 30 31 32  0  0  0
+          0  0  0  0  0  0  0  0  0  0  0  0  0  0  0  0  0
+          0  0  0  0  0  0  0  0  0  0  0  0  0  0  0  0  0
+          0  0  0  0  0  0  0  0  0  0  0  0  0  0  0  0  0
++         0  0  0  0  0  0  0  0  0  0  0  0  0  0  0  0  0
++         0  0  0  0  0  0  0  0  0  0  0  0  0  0  0  0  0
++         0  0  0  0  0  0  0  0  0  0  0  0  0  0  0  0  0
++         0  0  0  0  0  0  0  0  0  0  0  0  0  0  0  0  0
++         0  0  0  0  0  0  0  0  0  0  0  0  0  0  0  0  0
%c cc cc ccc ccc cccc cccc cccc cccc ccccc ccccc ccccc ccccc
%c cc cc ccc ccc cccc cccc cccc cccc ccccc ccccc ccccc ccccc
%f  0.0000000  0.000000000  0.00000000000  0.000000000000000
%f  0.0000000  0.000000000  0.00000000000  0.000000000000000
%i    0    0    0    0      0      0      0      0         0
%i    0    0    0    0      0      0      0      0         0
/*      NGA, ST. LOUIS,MO.                                  
/*   EPHEMERIS COMPUTED FROM  3 DAYS OF DATA                
/* CCCCCCCCCCCCCCCCCCCCCCCCCCCCCCCCCCCCCCCCCCCCCCCCCCCCCCCCC
/* CCCCCCCCCCCCCCCCCCCCCCCCCCCCCCCCCCCCCCCCCCCCCCCCCCCCCCCCC
*  2009  3 19 12 45   .00000000                                                 
P  2  -5920.716680 -19023.766475  17638.424031    154.595804                    
V  2  19924.914320  10667.831351  17678.737263      -.007104                    
P  3   1504.744007  17264.966035 -20350.408479    367.641652                    
V  3 -21994.492314  12750.239094   9687.671861       .051812                    
P  4   8576.934430 -13007.757702  21376.716711    -18.373598                    
V  4  23017.159631  15108.826083    324.495797      -.144227                    
P  5 -14348.744875 -10841.383213  19286.071524    -11.056077                    
V  5    488.727418 -25182.364021 -13461.921336      -.075113                    
P  6  -4655.041508  18279.802230 -18493.226859     39.710447                    
V  6 -21839.236995  10082.571199  15345.569586       .187143                    
P  7  22736.911682   3998.893242 -13249.150170     21.517272                    
V  7  12879.573088  10885.334481  25311.604033      -.004546                    
P  8  15063.890167  -6171.458240 -21145.567522   -195.005849                    
V  8  21059.542340  16154.556033   9831.799137      -.014371                    
P  9 -21401.809777 -15605.667726  -3240.887212     46.221416                    
V  9   3964.823592   -160.178792 -31666.398189       .019552                    
P 10  -2837.406798 -25316.350807  -7012.175597    -12.918138                    
V 10   3694.277026  -8504.311519  30228.769936      -.005806                    
P 11  23918.150841  11707.464927  -2716.556955      4.150604                    
V 11  -4697.906000   3156.763675 -29632.840649      -.012007                    
P 12 -12400.206555 -13756.455105  19156.389990   -304.504688                    
V 12   2716.897058 -23986.720490 -15416.910440       .043214                    
P 13  24646.805112  -4607.195647   8623.686571    291.984434                    
V 13  -9530.341653   5898.558833  29966.903305       .011093                    
P 14 -19649.728174  15448.057169   8935.424328   -138.710442                    
V 14 -10923.440296   2995.335360 -29695.048820       .055642                    
P 15  -9739.049719 -12051.816522 -21549.676792   -270.814080                    
V 15  24198.936032 -12928.420121  -3644.722001      -.047550                    
P 16  -1637.694992  26372.318178   -673.213013     66.388886                    
V 16  -2870.823404    709.189686  32043.423815      -.029991                    
P 17  20685.761231 -15131.004266   6641.814774     50.762327                    
V 17   8808.745912  -1074.846958 -30338.397286       .015621                    
P 18 -15196.095282   8270.155684 -19842.930159    -73.410262                    
V 18    839.354657 -25857.688855 -11662.002059       .034727                    
P 19  11866.620862  11071.675836 -21000.508655     30.308908                    
V 19 -24499.095109  10837.175212  -7869.930974      -.008281                    
P 20  13892.765880  11026.944012  19654.798920     87.739201                    
V 20  -2246.355513  25223.227067 -12435.017611      -.010705                    
P 21 -21536.548881   -724.005100 -15678.821287     23.689523                    
V 21 -15422.180299 -13182.108448  20843.143818      -.019327                    
P 22 -11937.811589  19149.501481 -13804.559754    203.218505                    
V 22  -1020.068224 -18039.934881 -23938.611191      -.005017                    
P 23  20141.479063   3093.989428  17129.927509    388.514317                    
V 23 -18830.799624  10911.589211  19845.792153       .004407                    
P 24 -22773.706893 -12458.913915  -4772.337929    174.363666                    
V 24  -3120.473344  -6369.160958  30923.692065       .031139                    
P 25  24331.942529   8202.556337  -6021.265339    309.542506                    
V 25   5935.722420   6184.899999  30813.519085       .226975                    
P 26  -8014.131909 -12551.266391 -22572.046472     51.948488                    
V 26  24983.003553 -10793.526130  -2417.862574       .023136                    
P 27  -5689.333349 -17667.800853 -18323.998985     33.537449                    
V 27  22083.679484  11018.453650 -16930.568190       .031439                    
P 28  12290.671880 -17124.127361 -15532.612586    -23.706183                    
V 28    366.738518  20736.196776 -22287.235598      -.000806                    
P 29 -24311.244126   3646.450124  10115.501715       .313266                    
V 29  10415.492652  -7698.614347  28135.129425       .039208                    
P 30 -15247.762730   -530.421927  21380.791297    133.398279                    
V 30    447.310671 -28040.359452   -287.211302       .025284                    
P 31  -5615.045294  14210.814722  21926.650588    -55.190288                    
V 31 -23040.085365 -14669.429132   3775.388856      -.011680                    
P 32   8814.560275  19270.276871  16562.845683    284.851124                    
V 32  -4385.858087  19752.478504 -20926.703633      -.040242                    
EOF
